ARABSAT-5A              
1 36745U 10032B   23206.57008854  .00000168  00000+0  00000+0 0  9994
2 36745   0.0625  52.8501 0005137  60.2665  65.5939  1.00269738 48041
ECHOSTAR 15             
1 36792U 10034A   23206.55169675 -.00000267  00000+0  00000+0 0  9996
2 36792   0.0403 270.5274 0002111 199.3343 330.0886  1.00269979 47710
BEIDOU-2 IGSO-1         
1 36828U 10036A   23206.26224615 -.00000073  00000+0  00000+0 0  9997
2 36828  54.2374 172.5433 0036928 190.8470 142.9368  1.00265763 47594
NILESAT 201             
1 36830U 10037A   23206.27590139 -.00000043  00000+0  00000+0 0  9996
2 36830   0.0400 224.2098 0005449 278.3982 252.4453  1.00271136 47753
RASCOM-QAF 1R           
1 36831U 10037B   23206.56459714  .00000033  00000+0  00000+0 0  9990
2 36831   0.0237  98.6135 0005575  26.3158  24.2125  1.00271780 47692
AEHF-1 (USA 214)        
1 36868U 10039A   23206.27808052  .00000036  00000+0  00000+0 0  9996
2 36868   5.5434  81.5052 0006842  40.3896 284.9421  1.00274184 43043
QZS-1 (MICHIBIKI-1)     
1 37158U 10045A   23203.00000000 -.00000039  00000+0  00000+0 0  9995
2 37158  42.9121 127.5309 0507632 270.1951  93.1714  0.95400618 47076
XM-5                    
1 37185U 10053A   23206.39130701 -.00000008  00000+0  00000+0 0  9997
2 37185   0.0361 248.1262 0000091 158.2476 282.1346  1.00271744 46871
BSAT-3B                 
1 37207U 10056B   23206.59391692 -.00000336  00000+0  00000+0 0  9999
2 37207   0.0800 293.3685 0000617  90.3484 242.9776  1.00271504 41515
BEIDOU-2 G4             
1 37210U 10057A   23206.62107921 -.00000099  00000+0  00000+0 0  9994
2 37210   1.0878  58.7144 0004090 140.5731 127.3417  1.00270694 46680
SKYTERRA 1              
1 37218U 10061A   23206.60515808 -.00000104  00000+0  00000+0 0  9999
2 37218   3.0189  43.4652 0001026  64.3506 311.7952  1.00271284 46598
HYLAS 1                 
1 37237U 10065A   23206.58642236 -.00000298  00000+0  00000+0 0  9991
2 37237   2.9339  85.7612 0008667 260.4836 280.5048  1.01078635 46373
INTELSAT 17 (IS-17)     
1 37238U 10065B   23206.59251345  .00000013  00000+0  00000+0 0  9994
2 37238   0.0180 181.4536 0002674 316.7625  84.1072  1.00271768 42630
BEIDOU-2 IGSO-2         
1 37256U 10068A   23206.21830404 -.00000188  00000+0  00000+0 0  9999
2 37256  49.4828 284.8059 0031728 210.0183 352.0639  1.00297497 46188
EUTELSAT KA-SAT 9A      
1 37258U 10069A   23206.27903932  .00000076  00000+0  00000+0 0  9990
2 37258   0.0512 309.9031 0004896 169.4388 292.8066  1.00271363 33389
HISPASAT 30W-5          
1 37264U 10070A   23205.69795858 -.00000203  00000+0  00000+0 0  9993
2 37264   0.0374 107.4096 0005951  28.4146  27.5667  1.00269963 42577
KOREASAT 6              
1 37265U 10070B   23206.30039472 -.00000348  00000+0  00000+0 0  9996
2 37265   0.0336 110.8418 0001537  21.3206  34.7269  1.00271365 46163
BEIDOU-2 IGSO-3         
1 37384U 11013A   23206.51309549 -.00000169  00000+0  00000+0 0  9995
2 37384  60.8771  50.2920 0026939 173.9670   9.8767  1.00292436 45054
INTELSAT NEW DAWN       
1 37392U 11016A   23206.57052435  .00000170  00000+0  00000+0 0  9993
2 37392   0.0144 105.5215 0001188  32.7722  42.9222  1.00275383 42685
YAHSAT 1A               
1 37393U 11016B   23206.43111664  .00000115  00000+0  00000+0 0  9998
2 37393   0.0220  69.9622 0002970  41.3998  39.2040  1.00272756 31807
SBIRS GEO-1 (USA 230)   
1 37481U 11019A   23206.57709573  .00000009  00000+0  00000+0 0  9998
2 37481   2.4097  41.1339 0001591  91.5734  83.7535  1.00272244 44790
TELSTAR 14R             
1 37602U 11021A   23206.55143525 -.00000265  00000+0  00000+0 0  9998
2 37602   0.0217  67.0121 0001214  24.8494 346.6510  1.00268488 45221
GSAT-8                  
1 37605U 11022A   23206.50328307  .00000099  00000+0  00000+0 0  9994
2 37605   0.0172 101.5184 0002543 154.1191 283.5588  1.00271032 42617
ST-2                    
1 37606U 11022B   23206.58154115 -.00000196  00000+0  00000+0 0  9996
2 37606   0.0031 355.5055 0001068 173.8012  71.0679  1.00267765 44678
CHINASAT 10 (ZX 10)     
1 37677U 11026A   23206.58943031 -.00000338  00000+0  00000+0 0  9999
2 37677   0.0581 264.3993 0002583 254.0965 107.2512  1.00269750 44399
TIANLIAN 1-02           
1 37737U 11032A   23206.62461065 -.00000036  00000+0  00000+0 0  9995
2 37737   2.5934  72.8160 0086088   5.0107 257.1262  1.00273581 33614
SES-3                   
1 37748U 11035A   23205.89843177 -.00000088  00000+0  00000+0 0  9993
2 37748   0.0188   1.1728 0002771 115.9477  45.6585  1.00271455 43980
KAZSAT-2                
1 37749U 11035B   23206.58119248 -.00000183  00000+0  00000+0 0  9992
2 37749   0.0375 129.1788 0001849  93.7142  15.8443  1.00269712 42785
BEIDOU-2 IGSO-4         
1 37763U 11038A   23206.36838750  .00000023  00000+0  00000+0 0  9995
2 37763  54.5115 175.0788 0112023 228.5696 126.6779  1.00282683 44031
ASTRA 1N                
1 37775U 11041A   23206.56782225  .00000134  00000+0  00000+0 0  9992
2 37775   0.0492  23.4703 0004604  56.2075  86.9164  1.00271290 33927
BSAT-3C (JCSAT-110R)    
1 37776U 11041B   23206.59391694 -.00000336  00000+0  00000+0 0  9997
2 37776   0.0129 353.6653 0000360 144.8443 128.2925  1.00271134 39877
PAKSAT-1R               
1 37779U 11042A   23206.57157035  .00000168  00000+0  00000+0 0  9990
2 37779   0.0252 176.1453 0002685 280.6043  89.9307  1.00270838 43872
CHINASAT 1A (ZX 1A)     
1 37804U 11047A   23206.55265557 -.00000265  00000+0  00000+0 0  9990
2 37804   0.9749  92.2251 0002260 349.9293   2.8827  1.00061207 16745
SES-2                   
1 37809U 11049A   23206.54664119 -.00000181  00000+0  00000+0 0  9990
2 37809   0.0535 278.8690 0002694 204.7486 289.1635  1.00272591 43349
ARABSAT-5C              
1 37810U 11049B   23206.56799657  .00000138  00000+0  00000+0 0  9991
2 37810   0.0490   0.1038 0006578 157.9211   9.4605  1.00274230 43457
EUTELSAT 7 WEST A       
1 37816U 11051A   23206.41917506 -.00000046  00000+0  00000+0 0  9998
2 37816   0.0617 356.5345 0004838 148.2952 301.6254  1.00271536 43290
QUETZSAT 1              
1 37826U 11054A   23206.54864598 -.00000227  00000+0  00000+0 0  9999
2 37826   0.0148  53.7753 0002399  86.9320 282.7984  1.00270645 39278
INTELSAT 18 (IS-18)     
1 37834U 11056A   23206.58711698  .00000068  00000+0  00000+0 0  9998
2 37834   0.0166  46.3013 0002062  80.5588 207.5264  1.00272758 43208
EUTELSAT 16A            
1 37836U 11057A   23206.56721209  .00000119  00000+0  00000+0 0  9995
2 37836   0.0684 350.5968 0005211 130.4387  42.1663  1.00274097 35367
VIASAT-1                
1 37843U 11059A   23206.59668153 -.00000008  00000+0  00000+0 0  9994
2 37843   0.0180  63.3413 0002486  53.2353 286.1504  1.00269188 36715
ASIASAT 7               
1 37933U 11069A   23206.58494057 -.00000319  00000+0  00000+0 0  9999
2 37933   0.0021 301.0313 0001547 208.4364 109.6227  1.00268932 34257
BEIDOU-2 IGSO-5         
1 37948U 11073A   23206.21427396 -.00000146  00000+0  00000+0 0  9990
2 37948  49.6075 284.4722 0094073 219.6320 331.3084  1.00282572 42790
LUCH-5A                 
1 37951U 11074B   23206.62503660 -.00000038  00000+0  00000+0 0  9999
2 37951   6.0385  90.4051 0005464  29.8233 214.7998  1.00270847 42447
NIGCOMSAT 1R            
1 38014U 11077A   23206.50075529  .00000159  00000+0  00000+0 0  9991
2 38014   0.0500 114.9729 0002351 221.5301 189.2077  1.00269492 42352
FENGYUN 2F              
1 38049U 12002A   23206.58624803 -.00000346  00000+0  00000+0 0  9990
2 38049   4.7784  76.3284 0003002  77.6421 112.1895  1.00278568 42277
WGS F4 (USA 233)        
1 38070U 12003A   23206.15154628 -.00000201  00000+0  00000+0 0  9991
2 38070   0.0190  69.5977 0000304  80.9865 294.9863  1.00271986 33524
SES-4                   
1 38087U 12007A   23206.27293778 -.00000154  00000+0  00000+0 0  9993
2 38087   0.0200  43.8016 0002395  84.7618 250.3979  1.00270083 41624
BEIDOU-2 G5             
1 38091U 12008A   23206.57570111  .00000071  00000+0  00000+0 0  9998
2 38091   1.6139  67.6537 0000523 240.8373 260.4228  1.00270962 41763
MUOS-1                  
1 38093U 12009A   23206.60611819 -.00000114  00000+0  00000+0 0  9995
2 38093   3.4824  40.6845 0056027   4.1735  16.3752  1.00273082 41847
INTELSAT 22 (IS-22)     
1 38098U 12011A   23206.57831604 -.00000044  00000+0  00000+0 0  9997
2 38098   0.0064  23.8192 0002568 119.8766  79.6040  1.00270451 41218
APSTAR 7                
1 38107U 12013A   23206.57918769 -.00000087  00000+0  00000+0 0  9995
2 38107   0.0127 114.5226 0002484  17.5579  95.9406  1.00271422 41203
YAHSAT 1B               
1 38245U 12016A   23206.57348795  .00000141  00000+0  00000+0 0  9997
2 38245   0.0162  82.6449 0002791  23.2862  91.1285  1.00271102 34993
AEHF-2 (USA 235)        
1 38254U 12019A   23206.54524656 -.00000148  00000+0  00000+0 0  9997
2 38254   4.2173  62.1762 0002344  77.6700 265.2336  1.00271536 40247
JCSAT-13                
1 38331U 12023A   23206.51701791 -.00000342  00000+0  00000+0 0  9998
2 38331   0.0153  84.0814 0002096  35.1221 133.8729  1.00272982 40924
VINASAT-2               
1 38332U 12023B   23206.59693168 -.00000314  00000+0  00000+0 0  9994
2 38332   0.0106  44.9591 0002415  72.8707 171.9492  1.00271659 36051
NIMIQ 6                 
1 38342U 12026A   23206.54585670 -.00000159  00000+0  00000+0 0  9998
2 38342   0.0494 270.5132 0002378 210.8357 287.0417  1.00271304 39813
CHINASAT 2A (ZX 2A)     
1 38352U 12028A   23206.58354593 -.00000279  00000+0  00000+0 0  9996
2 38352   0.0591 256.7123 0002270  92.5742 262.0686  1.00273316 40775
INTELSAT 19 (IS-19)     
1 38356U 12030A   23206.62444716 -.00000042  00000+0  00000+0 0  9993
2 38356   0.0177  44.5714 0003237  84.0617 205.2441  1.00272204 39837
ECHOSTAR 17             
1 38551U 12035A   23206.44623498 -.00000061  00000+0  00000+0 0  9992
2 38551   0.0201  68.6488 0002051  52.2806 235.5003  1.00271943 40456
